FIREFLY-1               
1 62701U 25009CW  26192.15821505  .00000878  00000+0  90453-4 0  9996
2 62701  97.7062 269.7914 0002363 242.8479 117.2500 14.92734759 80899
FIREFLY-2               
1 62704U 25009CZ  26192.20313891  .00000480  00000+0  51861-4 0  9998
2 62704  97.7019 269.6073 0006767  16.2045 343.9390 14.92730190 80905
FIREFLY-3               
1 62710U 25009DF  26192.18142786  .00000689  00000+0  71948-4 0  9994
2 62710  97.7053 269.8440 0004855  82.2901 277.8869 14.92795472 80911
