{"fetched_at":"2026-07-11T09:24:17.160Z","source":"https://celestrak.org/NORAD/elements/gp.php?NAME=FIREFLY&FORMAT=JSON","constellation":"pixxel","records":[{"OBJECT_NAME":"FIREFLY-1","OBJECT_ID":"2025-009CW","EPOCH":"2026-07-11T03:47:49.780320","CLASSIFICATION_TYPE":"U","MEAN_MOTION":14.92734759,"ECCENTRICITY":0.0002363,"INCLINATION":97.7062,"RA_OF_ASC_NODE":269.7914,"ARG_OF_PERICENTER":242.8479,"MEAN_ANOMALY":117.25,"EPHEMERIS_TYPE":0,"NORAD_CAT_ID":62701,"ELEMENT_SET_NO":999,"REV_AT_EPOCH":8089,"BSTAR":0.000090453,"MEAN_MOTION_DOT":0.00000878,"MEAN_MOTION_DDOT":0},{"OBJECT_NAME":"FIREFLY-2","OBJECT_ID":"2025-009CZ","EPOCH":"2026-07-11T04:52:31.201824","CLASSIFICATION_TYPE":"U","MEAN_MOTION":14.9273019,"ECCENTRICITY":0.0006767,"INCLINATION":97.7019,"RA_OF_ASC_NODE":269.6073,"ARG_OF_PERICENTER":16.2045,"MEAN_ANOMALY":343.939,"EPHEMERIS_TYPE":0,"NORAD_CAT_ID":62704,"ELEMENT_SET_NO":999,"REV_AT_EPOCH":8090,"BSTAR":0.000051861,"MEAN_MOTION_DOT":0.0000048,"MEAN_MOTION_DDOT":0},{"OBJECT_NAME":"FIREFLY-3","OBJECT_ID":"2025-009DF","EPOCH":"2026-07-11T04:21:15.367104","CLASSIFICATION_TYPE":"U","MEAN_MOTION":14.92795472,"ECCENTRICITY":0.0004855,"INCLINATION":97.7053,"RA_OF_ASC_NODE":269.844,"ARG_OF_PERICENTER":82.2901,"MEAN_ANOMALY":277.8869,"EPHEMERIS_TYPE":0,"NORAD_CAT_ID":62710,"ELEMENT_SET_NO":999,"REV_AT_EPOCH":8091,"BSTAR":0.000071948,"MEAN_MOTION_DOT":0.00000689,"MEAN_MOTION_DDOT":0}]}
